38040,GLOBALSTAR M084,2011,114.08,700.0,+,52.0,Active,1,LEO,Kazakhstan,Globalstar,Commercial,Communications,Soyuz,1 38040U 11080A   24363.58494590 -.00000066  00000+0  21193-3 0  9998,2 38040  51.9982 207.8493 0001304  72.9121 333.9656 12.62273008601120,12.62273008,0.0001304,LEO
38041,GLOBALSTAR M080,2011,114.08,700.0,+,52.0,Active,1,LEO,Kazakhstan,Globalstar,Commercial,Communications,Soyuz,1 38041U 11080B   24363.86821552 -.00000061  00000+0  24130-3 0  9991,2 38041  52.0035 208.5365 0001246  58.3810 314.7944 12.62260026601422,12.62260026,0.0001246,LEO
38042,GLOBALSTAR M082,2011,114.08,700.0,+,52.0,Active,1,LEO,Kazakhstan,Globalstar,Commercial,Communications,Soyuz,1 38042U 11080C   24363.81907258 -.00000099  00000+0  24829-4 0  9992,2 38042  52.0051 164.1111 0001282 120.8124 329.9834 12.62271754602157,12.62271754,0.0001282,LEO
38043,GLOBALSTAR M092,2011,114.08,700.0,+,52.01,Active,1,LEO,Kazakhstan,Globalstar,Commercial,Communications,Soyuz,1 38043U 11080D   24363.49346593 -.00000069  00000+0  19681-3 0  9992,2 38043  52.0076 255.4719 0001015  69.2585 101.2224 12.62271092600397,12.62271092,0.0001015,LEO
38044,GLOBALSTAR M090,2011,114.08,700.0,+,51.99,Active,1,LEO,Kazakhstan,Globalstar,Commercial,Communications,Soyuz,1 38044U 11080E   24363.52458965 -.00000112  00000+0 -46015-4 0  9996,2 38044  51.9862 159.0352 0001023 112.3266 319.6366 12.62265332602064,12.62265332,0.0001023,LEO
38045,GLOBALSTAR M086,2011,114.08,700.0,+,51.99,Active,1,LEO,Kazakhstan,Globalstar,Commercial,Communications,Soyuz,1 38045U 11080F   24363.54166443 -.00000096  00000+0  45069-4 0  9994,2 38045  51.9875 159.5207 0000397  46.9251 343.1231 12.62265251602010,12.62265251,3.97e-05,LEO
39072,GLOBALSTAR M097,2013,114.08,700.0,+,52.01,Active,1,LEO,Kazakhstan,Globalstar,Commercial,Communications,Soyuz,1 39072U 13005A   24363.56182552 -.00000100  00000+0  20138-4 0  9991,2 39072  52.0056  73.8349 0000479 142.6835 217.4065 12.62268274549265,12.62268274,4.79e-05,LEO
39073,GLOBALSTAR M093,2013,114.08,700.0,+,51.98,Active,1,LEO,Kazakhstan,Globalstar,Commercial,Communications,Soyuz,1 39073U 13005B   24363.53473511 -.00000092  00000+0  68056-4 0  9998,2 39073  51.9821  67.4889 0000448 147.3478 212.7416 12.62260550549215,12.6226055,4.48e-05,LEO
